[{"OBJECT_NAME":"PROTOMETHEE","OBJECT_ID":"2023-174BT","EPOCH":"2026-03-09T23:28:08.029344","MEAN_MOTION":15.30202663,"ECCENTRICITY":0.00088339,"INCLINATION":97.3826,"RA_OF_ASC_NODE":147.9552,"ARG_OF_PERICENTER":148.5993,"MEAN_ANOMALY":211.5776,"EPHEMERIS_TYPE":0,"CLASSIFICATION_TYPE":"U","NORAD_CAT_ID":58321,"ELEMENT_SET_NO":999,"REV_AT_EPOCH":12979,"BSTAR":0.00015715731,"MEAN_MOTION_DOT":4.52e-5,"MEAN_MOTION_DDOT":0},{"OBJECT_NAME":"STARLINK-35922","OBJECT_ID":"2025-263T","EPOCH":"2026-03-09T05:16:26.739552","MEAN_MOTION":15.275785,"ECCENTRICITY":0.00033204,"INCLINATION":43.0093,"RA_OF_ASC_NODE":353.639,"ARG_OF_PERICENTER":259.7702,"MEAN_ANOMALY":100.2776,"EPHEMERIS_TYPE":0,"CLASSIFICATION_TYPE":"U","NORAD_CAT_ID":66502,"ELEMENT_SET_NO":999,"REV_AT_EPOCH":1882,"BSTAR":0.00087173129,"MEAN_MOTION_DOT":0.00023804,"MEAN_MOTION_DDOT":0}]
